      2.10          N: GNSS NAV DATA                        RINEX VERSION / TYPE
fic2rin                                 03/26/2024 20:50:01 PGM / RUN BY / DATE
                                                            END OF HEADER
1  24  3 25  1 59 44.0  .175818335265D-03  .216004991671D-11  .000000000000D+00
     .300000000000D+01  .318750000000D+01  .362979405263D-08 -.224106175626D+01
    -.596046447754D-07  .129502557684D-01  .122804194689D-04  .515400827026D+04
     .935840000000D+05  .162050127983D-06 -.311151024634D+01 -.558793544769D-07
     .990998285319D+00  .155125000000D+03  .100324342313D+01 -.731530471180D-08
     .160006664920D-09  .100000000000D+01  .230700000000D+04  .000000000000D+00
     .240000000000D+01  .630000000000D+02  .512227416039D-08  .300000000000D+01
     .864000000000D+05  .400000000000D+01
8  24  3 25  1 59 44.0  .783088617027D-04  .256932253251D-10  .000000000000D+00
     .900000000000D+01 -.627500000000D+02  .498592196938D-08  .170315449248D+00
    -.320561230183D-05  .944670836907D-02  .452436506748D-05  .515360305786D+04
     .935840000000D+05  .931322574615D-07  .207022695061D+01  .689178705215D-07
     .953835655929D+00  .288156250000D+03  .344509651696D+00 -.855678499587D-08
    -.314655963827D-09  .100000000000D+01  .230700000000D+04  .000000000000D+00
     .240000000000D+01  .000000000000D+00  .465661287308D-08  .900000000000D+01
     .864000000000D+05  .400000000000D+01
12 24  3 25  4  0  0.0 -.490339007229D-03 -.352429196937D-11  .000000000000D+00
     .122000000000D+03  .733437500000D+02  .466805158594D-08 -.233396838313D+01
     .382773578167D-05  .895549717825D-02  .470131635666D-05  .515368087387D+04
     .100800000000D+06  .137835741043D-06  .112422422914D+01 -.428408384323D-07
     .962732003092D+00  .288812500000D+03  .142890855475D+01 -.816176854185D-08
     .437518224390D-09  .100000000000D+01  .230700000000D+04  .000000000000D+00
     .340000000000D+01  .000000000000D+00 -.125728547573D-07  .122000000000D+03
     .936000000000D+05  .400000000000D+01
10 24  3 25  4  0  0.0 -.243587419391D-05 -.272848410532D-11  .000000000000D+00
     .780000000000D+02  .685312500000D+02  .431553690229D-08 -.306561393750D+01
     .346638262272D-05  .929866416845D-02  .610575079918D-05  .515368295860D+04
     .100800000000D+06 -.316649675369D-07 -.208630219520D+01 -.204890966415D-06
     .982904546217D+00  .273343750000D+03 -.236733931757D+01 -.789461455667D-08
     .438589697593D-09  .100000000000D+01  .230700000000D+04  .000000000000D+00
     .340000000000D+01  .000000000000D+00  .232830643654D-08  .780000000000D+02
     .936000000000D+05  .400000000000D+01
31 24  3 25  4  0  0.0 -.228010583669D-03  .000000000000D+00  .000000000000D+00
     .980000000000D+02 -.140625000000D+01  .428053544434D-08 -.247175989970D+01
    -.139698386192D-06  .105264282320D-01  .124052166939D-04  .515370609665D+04
     .100800000000D+06  .689178705215D-07  .301703300868D-01 -.122934579849D-06
     .954853743045D+00  .136343750000D+03  .665142966217D+00 -.775710882900D-08
     .142863093678D-11  .100000000000D+01  .230700000000D+04  .000000000000D+00
     .240000000000D+01  .000000000000D+00 -.130385160446D-07  .980000000000D+02
     .936000000000D+05  .400000000000D+01
27 24  3 25  4  0  0.0 -.142026692629D-04 -.261479726760D-11  .000000000000D+00
     .103000000000D+03 -.616875000000D+02  .479877131666D-08  .131909199197D+01
    -.327266752720D-05  .125430116896D-01  .486895442009D-05  .515367301941D+04
     .100800000000D+06 -.134110450745D-06  .209609691158D+01  .819563865662D-07
     .962838488899D+00  .289250000000D+03  .775478595739D+00 -.847321008607D-08
    -.420374653149D-09  .100000000000D+01  .230700000000D+04  .000000000000D+00
     .240000000000D+01  .000000000000D+00  .186264514923D-08  .103000000000D+03
     .936000000000D+05  .400000000000D+01
16 24  3 25  4  0  0.0 -.333160161972D-03  .898126018001D-11  .000000000000D+00
     .117000000000D+03  .672187500000D+02  .469019536546D-08  .218748457013D+01
     .328011810780D-05  .139940164518D-01  .509247183800D-05  .515374897003D+04
     .100800000000D+06 -.169500708580D-06  .114216347567D+01 -.247731804848D-06
     .962234859641D+00  .283531250000D+03  .833476143913D+00 -.821641367518D-08
     .405374028313D-09  .100000000000D+01  .230700000000D+04  .000000000000D+00
     .240000000000D+01  .000000000000D+00 -.102445483208D-07  .117000000000D+03
     .936000000000D+05  .400000000000D+01
17 24  3 25  4  0  0.0  .712349545211D-03 -.159161572810D-11  .000000000000D+00
     .900000000000D+02 -.737500000000D+02  .448411535283D-08  .126403101046D+01
    -.395067036152D-05  .134411368053D-01  .550039112568D-05  .515369206047D+04
     .100800000000D+06  .000000000000D+00  .216392168656D+01 -.352039933205D-06
     .969636378093D+00  .276687500000D+03 -.132916343686D+01 -.823284293095D-08
    -.292155026572D-09  .100000000000D+01  .230700000000D+04  .000000000000D+00
     .240000000000D+01  .000000000000D+00 -.111758708954D-07  .900000000000D+02
     .936000000000D+05  .400000000000D+01
20 24  3 25  4  0  0.0  .382682308555D-03 -.136424205266D-11  .000000000000D+00
     .560000000000D+02  .822812500000D+02  .500127975195D-08 -.268744147141D+00
     .434368848801D-05  .373605091590D-02  .711344182491D-05  .515374717331D+04
     .100800000000D+06  .465661287308D-07 -.226198885790D+01  .409781932831D-07
     .952811763954D+00  .240062500000D+03 -.260243554136D+01 -.837642034010D-08
     .511449875369D-09  .100000000000D+01  .230700000000D+04  .000000000000D+00
     .240000000000D+01  .000000000000D+00 -.838190317154D-08  .560000000000D+02
     .936000000000D+05  .400000000000D+01
23 24  3 25  4  0  0.0  .184911768883D-03  .886757334229D-11  .000000000000D+00
     .115000000000D+03  .699375000000D+02  .444625663301D-08 -.191899763763D+01
     .363960862160D-05  .402287626639D-02  .631250441074D-05  .515370473289D+04
     .100800000000D+06  .614672899246D-07 -.211498467470D+01 -.102445483208D-06
     .978066904344D+00  .267062500000D+03 -.295609147977D+01 -.809533720329D-08
     .507878298027D-09  .100000000000D+01  .230700000000D+04  .000000000000D+00
     .240000000000D+01  .000000000000D+00 -.838190317154D-08  .115000000000D+03
     .936000000000D+05  .400000000000D+01
25 24  3 25  4  0  0.0  .492165796459D-03  .909494701773D-12  .000000000000D+00
     .770000000000D+02  .804687500000D+02  .482770109313D-08 -.240739139157D+01
     .415183603764D-05  .118187629851D-01  .538118183613D-05  .515359487724D+04
     .100800000000D+06  .111758708954D-06  .103834248807D+01 -.100582838058D-06
     .950708753384D+00  .269593750000D+03  .108411858747D+01 -.818819821418D-08
     .533236497155D-09  .100000000000D+01  .230700000000D+04  .000000000000D+00
     .240000000000D+01  .000000000000D+00  .558793544769D-08  .770000000000D+02
     .936000000000D+05  .400000000000D+01
13 24  3 25  4  0  0.0  .637054443359D-03  .329691829393D-11  .000000000000D+00
     .101000000000D+03 -.723437500000D+02  .459161983082D-08  .946710826489D+00
    -.362098217010D-05  .787236867473D-02  .668503344059D-05  .515365702248D+04
     .100800000000D+06 -.521540641785D-07 -.898126989383D+00  .121071934700D-06
     .971067840508D+00  .257125000000D+03  .928761921771D+00 -.828963101069D-08
    -.607168148133D-09  .100000000000D+01  .230700000000D+04  .000000000000D+00
     .240000000000D+01  .000000000000D+00 -.116415321827D-07  .101000000000D+03
     .936000000000D+05  .400000000000D+01
14 24  3 25  4  0  0.0  .359185505658D-03  .966338120634D-11  .000000000000D+00
     .300000000000D+02  .732187500000D+02  .495127766916D-08 -.231562906507D+01
     .375881791115D-05  .415767880622D-02  .509805977345D-05  .515369151497D+04
     .100800000000D+06 -.204890966415D-07  .108074784427D+01  .260770320892D-07
     .946105235458D+00  .276031250000D+03 -.295124685685D+01 -.836749139675D-08
     .481091467962D-09  .100000000000D+01  .230700000000D+04  .000000000000D+00
     .240000000000D+01  .000000000000D+00 -.791624188423D-08  .542000000000D+03
     .936000000000D+05  .400000000000D+01
11 24  3 25  4  0  0.0 -.616907607764D-03 -.113686837722D-10  .000000000000D+00
     .114000000000D+03  .381250000000D+01  .415231581776D-08  .464372226533D+00
     .428408384323D-07  .121956644580D-02  .130068510771D-04  .515368827248D+04
     .100800000000D+06 -.372529029846D-08 -.308553422966D+01  .372529029846D-08
     .966551979170D+00  .133250000000D+03 -.249759696257D+01 -.780461080765D-08
     .689314426998D-10  .100000000000D+01  .230700000000D+04  .000000000000D+00
     .240000000000D+01  .000000000000D+00 -.838190317154D-08  .370000000000D+03
     .936000000000D+05  .400000000000D+01
30 24  3 25  4  0  0.0 -.414993613958D-03  .534328137292D-11  .000000000000D+00
     .177000000000D+03  .571875000000D+01  .468876673453D-08 -.174569591908D+01
     .894069671631D-07  .695649674162D-02  .118315219879D-04  .515367701721D+04
     .100800000000D+06  .558793544769D-07  .105076417083D-01 -.134110450745D-06
     .935993102430D+00  .136593750000D+03 -.250498308820D+01 -.796247452617D-08
    -.607168148133D-10  .100000000000D+01  .230700000000D+04  .000000000000D+00
     .240000000000D+01  .000000000000D+00  .372529029846D-08  .177000000000D+03
     .936000000000D+05  .400000000000D+01
28 24  3 25  4  0  0.0 -.177090056241D-03 -.143245415529D-10  .000000000000D+00
     .130000000000D+03 -.946875000000D+01  .408838458334D-08 -.308174614520D+01
    -.445172190666D-06  .519934692420D-03  .128094106913D-04  .515362811089D+04
     .100800000000D+06 -.409781932831D-07 -.248560563374D-01 -.204890966415D-07
     .961964929312D+00  .134031250000D+03  .174679292039D+01 -.776568061463D-08
    -.162506769059D-09  .100000000000D+01  .230700000000D+04  .000000000000D+00
     .240000000000D+01  .000000000000D+00 -.931322574615D-08  .898000000000D+03
     .936000000000D+05  .400000000000D+01
